COSMOS 2413 (712)       
1 28509U 04053B   16016.47303059  .00000107  00000-0  00000+0 0  9998
2 28509  63.1324 195.5358 0005635 160.6596 175.5439  2.13101716 86047
COSMOS 2419 (714)       
1 28915U 05050A   16017.80468612 -.00000037  00000-0  00000+0 0  9995
2 28915  65.2538  83.2795 0014870 346.6261 290.7246  2.13112618 78323
COSMOS 2425 (716)       
1 29670U 06062A   16017.67296602 -.00000055  00000-0  10000-3 0  9996
2 29670  65.6969 322.2469 0023171 341.3670 256.7033  2.13105080 70523
COSMOS 2426 (717)       
1 29671U 06062B   16017.86986117 -.00000057  00000-0  10000-3 0  9997
2 29671  65.7143 322.3187 0015370 171.7003  79.4056  2.13103117 70539
COSMOS 2424 (715)       
1 29672U 06062C   16018.02539028 -.00000058  00000-0  10000-3 0  9993
2 29672  65.6987 322.2441 0014719 170.4193  16.7563  2.13102175 70539
COSMOS 2433 (720)       
1 32275U 07052A   16018.46437490 -.00000037  00000-0  10000-3 0  9991
2 32275  65.2704  83.0245 0003586 251.4514  65.5635  2.13105052 64055
COSMOS 2432 (719)       
1 32276U 07052B   16018.54103869 -.00000037  00000-0  10000-3 0  9991
2 32276  65.2822  83.0838 0011459 331.6920 358.3021  2.13104239 64053
COSMOS 2434 (721)       
1 32393U 07065A   16017.60124428 -.00000055  00000-0  00000+0 0  9990
2 32393  65.3167 321.6443 0001598  96.7523 171.3700  2.13102843 62740
COSMOS 2436 (723)       
1 32395U 07065C   16017.45959821 -.00000054  00000-0  10000-3 0  9992
2 32395  65.3296 321.6893 0018491 347.6988 263.7453  2.13102895 62677
COSMOS 2443 (725)       
1 33379U 08046B   16018.20964177 -.00000037  00000-0  10000-3 0  9990
2 33379  65.1988  82.4631 0018835 187.9209 200.6151  2.13101511 56921
COSMOS 2456 (730)       
1 36111U 09070A   16018.20928304  .00000112  00000-0  00000+0 0  9995
2 36111  64.1867 201.2375 0003564 351.6479 191.7505  2.13103001 47425
COSMOS 2457 (733)       
1 36112U 09070B   16017.58964271  .00000112  00000-0  00000+0 0  9999
2 36112  64.1688 201.1892 0007441 145.5545  53.4559  2.13101668 47411
COSMOS 2458 (734)       
1 36113U 09070C   16017.70919466  .00000112  00000-0  10000-3 0  9995
2 36113  64.1739 201.1897 0003192  60.8363 277.1392  2.13102039 47413
COSMOS 2459 (731)       
1 36400U 10007A   16017.66162353 -.00000036  00000-0  10000-3 0  9992
2 36400  65.1773  82.2203 0027743 350.9257 296.9318  2.13102336 45766
COSMOS 2461 (735)       
1 36401U 10007B   16018.03778131 -.00000037  00000-0  10000-3 0  9993
2 36401  65.1694  82.1906 0004542  74.8014  52.1755  2.13102168 45774
COSMOS 2460 (732)       
1 36402U 10007C   16018.36733505 -.00000037  00000-0  10000-3 0  9996
2 36402  65.1612  82.1580 0001283 233.1471 188.7690  2.13101990 45786
COSMOS 2466 (738)       
1 37137U 10041A   16018.48045706 -.00000063  00000-0  10000-3 0  9991
2 37137  64.9000 321.7929 0018451 157.5895 288.6458  2.13102379 41862
COSMOS 2465 (737)       
1 37138U 10041B   16018.21022560 -.00000061  00000-0  00000+0 0  9999
2 37138  64.9170 321.8728 0033268 171.4047 250.0584  2.13102786 41850
COSMOS 2464 (736)       
1 37139U 10041C   16017.33829786 -.00000053  00000-0  00000+0 0  9998
2 37139  64.9195 321.8949 0022723   8.3219 238.8124  2.13102885 41838
COSMOS 2471 (701K)      
1 37372U 11009A   16017.71764720 -.00000036  00000-0  00000+0 0  9991
2 37372  65.1579  82.1297 0008754 233.9765 181.6063  2.13102999 38041
COSMOS 2474 (742)       
1 37829U 11055A   16017.92575216  .00000113  00000-0  00000+0 0  9997
2 37829  64.5107 201.5971 0005532 248.5707 299.3872  2.13101972 33414
COSMOS 2476 (744)       
1 37867U 11064A   16017.38492752  .00000113  00000-0  00000+0 0  9992
2 37867  64.4913 201.7005 0014353 245.2556 293.5647  2.13102088 32758
COSMOS 2477 (745)       
1 37868U 11064B   16017.96119493  .00000113  00000-0  00000+0 0  9995
2 37868  64.4995 201.7199 0012332 246.4697 193.8458  2.13101966 32720
COSMOS 2475 (743)       
1 37869U 11064C   16017.25353392  .00000112  00000-0  00000+0 0  9995
2 37869  64.5068 201.7300 0018013 278.8400 294.6424  2.13102182 32713
COSMOS 2478 (746)       
1 37938U 11071A   16018.15280567 -.00000037  00000-0  00000+0 0  9990
2 37938  65.1838  82.3338 0014450 239.7467 270.3653  2.13088489 32343
COSMOS 2485 (747)       
1 39155U 13019A   16018.21029853  .00000113  00000-0  00000+0 0  9997
2 39155  64.6602 201.5898 0014710 238.9110 258.3014  2.13102134 21248
COSMOS 2492 (754)       
1 39620U 14012A   16018.38948955 -.00000037  00000-0  10000-3 0  9990
2 39620  65.0486  82.1664 0015495 327.7140 339.6819  2.13103507 14192
COSMOS 2500 (755)       
1 40001U 14032A   16018.21081581 -.00000037  00000-0  00000+0 0  9997
2 40001  64.9898  82.2084 0007347 210.4552 183.8793  2.13102945 12419
COSMOS 2501 (702K)      
1 40315U 14075A   16017.33672084 -.00000053  00000-0  00000+0 0  9996
2 40315  64.6878 323.3994 0018050 241.2306   4.5430  2.13101477  8795
